{"type": "FeatureCollection", "features": [ {"type": "Feature", "properties": {"norad_id": 31211, "name": "FENGYUN 1C DEB", "group": "fengyun-1c-debris", "lat": 27.766686110778256, "lon": -160.0143006004065, "alt_km": 796.4462943084272, "timestamp": "2025-12-05T07:38:19.126517+00:00", "meta": {"OBJECT_NAME": "FENGYUN 1C DEB", "OBJECT_ID": "1999-025BKR", "EPOCH": "2025-12-02T07:54:14.922432", "MEAN_MOTION": 14.19985775, "ECCENTRICITY": 0.00511166, "INCLINATION": 98.6742, "RA_OF_ASC_NODE": 12.4462, "ARG_OF_PERICENTER": 118.9096, "MEAN_ANOMALY": 241.7222, "EPHEMERIS_TYPE": 0, "CLASSIFICATION_TYPE": "U", "NORAD_CAT_ID": 31211, "ELEMENT_SET_NO": 999, "REV_AT_EPOCH": 63145, "BSTAR": 0.001279389, "MEAN_MOTION_DOT": 2.714e-05, "MEAN_MOTION_DDOT": 0}, "tle": {"line1": "1 31211U 99025BKR 25336.32933938  .00002714  00000+0  12794-2 0  9990", "line2": "2 31211  98.6742  12.4462 0051116 118.9096 241.7222 14.19985775631458"}}, "geometry": {"type": "Point", "coordinates": [-160.0143006004065, 27.766686110778256]}}, {"type": "Feature", "properties": {"norad_id": 31212, "name": "FENGYUN 1C DEB", "group": "fengyun-1c-debris", "lat": -43.50089715451694, "lon": 19.441704204655124, "alt_km": 885.2529532769504, "timestamp": "2025-12-05T07:38:19.126528+00:00", "meta": {"OBJECT_NAME": "FENGYUN 1C DEB", "OBJECT_ID": "1999-025BKS", "EPOCH": "2025-11-25T01:25:48.692640", "MEAN_MOTION": 14.12981607, "ECCENTRICITY": 0.00745379, "INCLINATION": 99.223, "RA_OF_ASC_NODE": 0.0078, "ARG_OF_PERICENTER": 220.8092, "MEAN_ANOMALY": 138.7482, "EPHEMERIS_TYPE": 0, "CLASSIFICATION_TYPE": "U", "NORAD_CAT_ID": 31212, "ELEMENT_SET_NO": 999, "REV_AT_EPOCH": 95409, "BSTAR": 0.0015990818, "MEAN_MOTION_DOT": 3.014e-05, "MEAN_MOTION_DDOT": 0}, "tle": {"line1": "1 31212U 99025BKS 25329.05959135  .00003014  00000+0  15991-2 0  9996", "line2": "2 31212  99.2230   0.0078 0074537 220.8092 138.7482 14.12981607954099"}}, "geometry": {"type": "Point", "coordinates": [19.441704204655124, -43.50089715451694]}}, {"type": "Feature", "properties": {"norad_id": 31215, "name": "FENGYUN 1C DEB", "group": "fengyun-1c-debris", "lat": 71.75356509989734, "lon": 32.02360282925115, "alt_km": 797.5940997331045, "timestamp": "2025-12-05T07:38:19.126538+00:00", "meta": {"OBJECT_NAME": "FENGYUN 1C DEB", "OBJECT_ID": "1999-025BKV", "EPOCH": "2025-12-01T19:24:11.403648", "MEAN_MOTION": 14.33696459, "ECCENTRICITY": 0.00702274, "INCLINATION": 99.0744, "RA_OF_ASC_NODE": 179.3473, "ARG_OF_PERICENTER": 355.6358, "MEAN_ANOMALY": 4.4204, "EPHEMERIS_TYPE": 0, "CLASSIFICATION_TYPE": "U", "NORAD_CAT_ID": 31215, "ELEMENT_SET_NO": 999, "REV_AT_EPOCH": 96369, "BSTAR": 0.00097709666, "MEAN_MOTION_DOT": 2.74e-05, "MEAN_MOTION_DDOT": 0}, "tle": {"line1": "1 31215U 99025BKV 25335.80846532  .00002740  00000+0  97710-3 0  9990", "line2": "2 31215  99.0744 179.3473 0070227 355.6358   4.4204 14.33696459963691"}}, "geometry": {"type": "Point", "coordinates": [32.02360282925115, 71.75356509989734]}}, {"type": "Feature", "properties": {"norad_id": 31217, "name": "FENGYUN 1C DEB", "group": "fengyun-1c-debris", "lat": -26.503571892142794, "lon": -8.242340010247299, "alt_km": 902.496800830253, "timestamp": "2025-12-05T07:38:19.126548+00:00", "meta": {"OBJECT_NAME": "FENGYUN 1C DEB", "OBJECT_ID": "1999-025BKX", "EPOCH": "2025-12-04T06:21:22.063680", "MEAN_MOTION": 14.17508117, "ECCENTRICITY": 0.0099319, "INCLINATION": 98.6409, "RA_OF_ASC_NODE": 346.3844, "ARG_OF_PERICENTER": 184.3408, "MEAN_ANOMALY": 175.6916, "EPHEMERIS_TYPE": 0, "CLASSIFICATION_TYPE": "U", "NORAD_CAT_ID": 31217, "ELEMENT_SET_NO": 999, "REV_AT_EPOCH": 96228, "BSTAR": 0.00098417, "MEAN_MOTION_DOT": 2.054e-05, "MEAN_MOTION_DDOT": 0}, "tle": {"line1": "1 31217U 99025BKX 25338.26483870  .00002054  00000+0  98417-3 0  9990", "line2": "2 31217  98.6409 346.3844 0099319 184.3408 175.6916 14.17508117962280"}}, "geometry": {"type": "Point", "coordinates": [-8.242340010247299, -26.503571892142794]}}, {"type": "Feature", "properties": {"norad_id": 31218, "name": "FENGYUN 1C DEB", "group": "fengyun-1c-debris", "lat": -31.362090639620167, "lon": -96.58972276531419, "alt_km": 668.1068914931111, "timestamp": "2025-12-05T07:38:19.126558+00:00", "meta": {"OBJECT_NAME": "FENGYUN 1C DEB", "OBJECT_ID": "1999-025BKY", "EPOCH": "2025-12-04T12:44:00.040128", "MEAN_MOTION": 14.71780481, "ECCENTRICITY": 0.0011488, "INCLINATION": 98.8431, "RA_OF_ASC_NODE": 87.9996, "ARG_OF_PERICENTER": 63.3018, "MEAN_ANOMALY": 296.9361, "EPHEMERIS_TYPE": 0, "CLASSIFICATION_TYPE": "U", "NORAD_CAT_ID": 31218, "ELEMENT_SET_NO": 999, "REV_AT_EPOCH": 96962, "BSTAR": 0.011647, "MEAN_MOTION_DOT": 0.00073542, "MEAN_MOTION_DDOT": 0}, "tle": {"line1": "1 31218U 99025BKY 25338.53055602  .00073542  00000+0  11647-1 0  9997", "line2": "2 31218  98.8431  87.9996 0011488  63.3018 296.9361 14.71780481969620"}}, "geometry": {"type": "Point", "coordinates": [-96.58972276531419, -31.362090639620167]}}, {"type": "Feature", "properties": {"norad_id": 31219, "name": "FENGYUN 1C DEB", "group": "fengyun-1c-debris", "lat": -10.264121151157905, "lon": 167.19994447484854, "alt_km": 794.4679613444605, "timestamp": "2025-12-05T07:38:19.126568+00:00", "meta": {"OBJECT_NAME": "FENGYUN 1C DEB", "OBJECT_ID": "1999-025BKZ", "EPOCH": "2025-11-28T23:33:42.264288", "MEAN_MOTION": 14.13677132, "ECCENTRICITY": 0.00786886, "INCLINATION": 99.2839, "RA_OF_ASC_NODE": 342.322, "ARG_OF_PERICENTER": 215.6749, "MEAN_ANOMALY": 143.9149, "EPHEMERIS_TYPE": 0, "CLASSIFICATION_TYPE": "U", "NORAD_CAT_ID": 31219, "ELEMENT_SET_NO": 999, "REV_AT_EPOCH": 95375, "BSTAR": 0.0014850879, "MEAN_MOTION_DOT": 2.841e-05, "MEAN_MOTION_DDOT": 0}, "tle": {"line1": "1 31219U 99025BKZ 25332.98173917  .00002841  00000+0  14851-2 0  9996", "line2": "2 31219  99.2839 342.3220 0078688 215.6749 143.9149 14.13677132953750"}}, "geometry": {"type": "Point", "coordinates": [167.19994447484854, -10.264121151157905]}}, {"type": "Feature", "properties": {"norad_id": 31222, "name": "FENGYUN 1C DEB", "group": "fengyun-1c-debris", "lat": -61.349666295090515, "lon": 64.64086597697579, "alt_km": 689.621588289735, "timestamp": "2025-12-05T07:38:19.126578+00:00", "meta": {"OBJECT_NAME": "FENGYUN 1C DEB", "OBJECT_ID": "1999-025BLC", "EPOCH": "2025-12-04T15:53:13.949664", "MEAN_MOTION": 14.97569168, "ECCENTRICITY": 0.0170527, "INCLINATION": 98.6136, "RA_OF_ASC_NODE": 47.8098, "ARG_OF_PERICENTER": 95.8565, "MEAN_ANOMALY": 266.2121, "EPHEMERIS_TYPE": 0, "CLASSIFICATION_TYPE": "U", "NORAD_CAT_ID": 31222, "ELEMENT_SET_NO": 999, "REV_AT_EPOCH": 99863, "BSTAR": 0.0014358, "MEAN_MOTION_DOT": 0.00022616, "MEAN_MOTION_DDOT": 0}, "tle": {"line1": "1 31222U 99025BLC 25338.66196701  .00022616  00000+0  14358-2 0  9991", "line2": "2 31222  98.6136  47.8098 0170527  95.8565 266.2121 14.97569168998632"}}, "geometry": {"type": "Point", "coordinates": [64.64086597697579, -61.349666295090515]}}, {"type": "Feature", "properties": {"norad_id": 31223, "name": "FENGYUN 1C DEB", "group": "fengyun-1c-debris", "lat": 19.587538196858663, "lon": -137.2217190400768, "alt_km": 837.0771957968145, "timestamp": "2025-12-05T07:38:19.126588+00:00", "meta": {"OBJECT_NAME": "FENGYUN 1C DEB", "OBJECT_ID": "1999-025BLD", "EPOCH": "2025-12-04T10:37:20.493120", "MEAN_MOTION": 13.77180561, "ECCENTRICITY": 0.0241383, "INCLINATION": 99.0055, "RA_OF_ASC_NODE": 225.1828, "ARG_OF_PERICENTER": 62.7464, "MEAN_ANOMALY": 299.8056, "EPHEMERIS_TYPE": 0, "CLASSIFICATION_TYPE": "U", "NORAD_CAT_ID": 31223, "ELEMENT_SET_NO": 999, "REV_AT_EPOCH": 92614, "BSTAR": 0.0041691, "MEAN_MOTION_DOT": 5.081e-05, "MEAN_MOTION_DDOT": 0}, "tle": {"line1": "1 31223U 99025BLD 25338.44259830  .00005081  00000+0  41691-2 0  9998", "line2": "2 31223  99.0055 225.1828 0241383  62.7464 299.8056 13.77180561926149"}}, "geometry": {"type": "Point", "coordinates": [-137.2217190400768, 19.587538196858663]}}, {"type": "Feature", "properties": {"norad_id": 31224, "name": "FENGYUN 1C DEB", "group": "fengyun-1c-debris", "lat": -63.52561301831964, "lon": -11.300279882691788, "alt_km": 840.5302988748426, "timestamp": "2025-12-05T07:38:19.126599+00:00", "meta": {"OBJECT_NAME": "FENGYUN 1C DEB", "OBJECT_ID": "1999-025BLE", "EPOCH": "2025-12-03T18:07:18.672672", "MEAN_MOTION": 14.28870959, "ECCENTRICITY": 0.01575493, "INCLINATION": 98.3692, "RA_OF_ASC_NODE": 330.0057, "ARG_OF_PERICENTER": 189.4604, "MEAN_ANOMALY": 347.708, "EPHEMERIS_TYPE": 0, "CLASSIFICATION_TYPE": "U", "NORAD_CAT_ID": 31224, "ELEMENT_SET_NO": 999, "REV_AT_EPOCH": 69122, "BSTAR": 0.00043720692, "MEAN_MOTION_DOT": 1.217e-05, "MEAN_MOTION_DDOT": 0}, "tle": {"line1": "1 31224U 99025BLE 25337.75507723  .00001217  00000+0  43721-3 0  9993", "line2": "2 31224  98.3692 330.0057 0157549 189.4604 347.7080 14.28870959691224"}}, "geometry": {"type": "Point", "coordinates": [-11.300279882691788, -63.52561301831964]}}, {"type": "Feature", "properties": {"norad_id": 31225, "name": "FENGYUN 1C DEB", "group": "fengyun-1c-debris", "lat": -66.23620376614656, "lon": 73.52840873985568, "alt_km": 829.231455216669, "timestamp": "2025-12-05T07:38:19.126609+00:00", "meta": {"OBJECT_NAME": "FENGYUN 1C DEB", "OBJECT_ID": "1999-025BLF", "EPOCH": "2025-12-04T17:19:13.838016", "MEAN_MOTION": 14.17796425, "ECCENTRICITY": 0.0088298, "INCLINATION": 98.9908, "RA_OF_ASC_NODE": 51.8505, "ARG_OF_PERICENTER": 14.6036, "MEAN_ANOMALY": 115.1906, "EPHEMERIS_TYPE": 0, "CLASSIFICATION_TYPE": "U", "NORAD_CAT_ID": 31225, "ELEMENT_SET_NO": 999, "REV_AT_EPOCH": 95708, "BSTAR": 0.0025014, "MEAN_MOTION_DOT": 5.26e-05, "MEAN_MOTION_DDOT": 0}, "tle": {"line1": "1 31225U 99025BLF 25338.72168794  .00005260  00000+0  25014-2 0  9999", "line2": "2 31225  98.9908  51.8505 0088298  14.6036 115.1906 14.17796425957085"}}, "geometry": {"type": "Point", "coordinates": [73.52840873985568, -66.23620376614656]}}]}